{"type": "FeatureCollection", "features": [{"type": "Feature", "properties": {"norad_id": 50032, "name": "COSMOS 1408 DEB", "group": "cosmos-1408-debris", "lat": 71.53615696460099, "lon": -135.4201943844913, "alt_km": 430.1395055689927, "timestamp": "2025-12-03T20:47:58.494282+00:00", "meta": {"OBJECT_NAME": "COSMOS 1408 DEB", "OBJECT_ID": "1982-092RU", "EPOCH": "2025-12-03T12:34:05.444832", "MEAN_MOTION": 15.45544262, "ECCENTRICITY": 0.0014683, "INCLINATION": 82.5656, "RA_OF_ASC_NODE": 67.9532, "ARG_OF_PERICENTER": 244.7236, "MEAN_ANOMALY": 115.2492, "EPHEMERIS_TYPE": 0, "CLASSIFICATION_TYPE": "U", "NORAD_CAT_ID": 50032, "ELEMENT_SET_NO": 999, "REV_AT_EPOCH": 22461, "BSTAR": 0.00015926, "MEAN_MOTION_DOT": 7.716e-05, "MEAN_MOTION_DDOT": 0}, "tle": {"line1": "1 50032U 82092RU  25337.52367413  .00007716  00000+0  15926-3 0  9998", "line2": "2 50032  82.5656  67.9532 0014683 244.7236 115.2492 15.45544262224613"}}, "geometry": {"type": "Point", "coordinates": [-135.4201943844913, 71.53615696460099]}}, {"type": "Feature", "properties": {"norad_id": 50058, "name": "COSMOS 1408 DEB", "group": "cosmos-1408-debris", "lat": 82.33484977269175, "lon": -175.93968622519924, "alt_km": 362.083692800622, "timestamp": "2025-12-03T20:47:58.494307+00:00", "meta": {"OBJECT_NAME": "COSMOS 1408 DEB", "OBJECT_ID": "1982-092SW", "EPOCH": "2025-12-03T08:07:02.387712", "MEAN_MOTION": 15.63243355, "ECCENTRICITY": 0.001629, "INCLINATION": 82.6136, "RA_OF_ASC_NODE": 79.1744, "ARG_OF_PERICENTER": 132.3779, "MEAN_ANOMALY": 227.8861, "EPHEMERIS_TYPE": 0, "CLASSIFICATION_TYPE": "U", "NORAD_CAT_ID": 50058, "ELEMENT_SET_NO": 999, "REV_AT_EPOCH": 22657, "BSTAR": 0.00042304, "MEAN_MOTION_DOT": 0.00039112, "MEAN_MOTION_DDOT": 0}, "tle": {"line1": "1 50058U 82092SW  25337.33822208  .00039112  00000+0  42304-3 0  9998", "line2": "2 50058  82.6136  79.1744 0016290 132.3779 227.8861 15.63243355226571"}}, "geometry": {"type": "Point", "coordinates": [-175.93968622519924, 82.33484977269175]}}, {"type": "Feature", "properties": {"norad_id": 50404, "name": "COSMOS 1408 DEB", "group": "cosmos-1408-debris", "lat": 24.20262608607347, "lon": -132.3656779153071, "alt_km": 639.8911639740463, "timestamp": "2025-12-03T20:47:58.494321+00:00", "meta": {"OBJECT_NAME": "COSMOS 1408 DEB", "OBJECT_ID": "1982-092ADS", "EPOCH": "2025-12-03T03:12:53.924544", "MEAN_MOTION": 15.11741121, "ECCENTRICITY": 0.01766229, "INCLINATION": 82.2064, "RA_OF_ASC_NODE": 224.8525, "ARG_OF_PERICENTER": 232.1925, "MEAN_ANOMALY": 126.3205, "EPHEMERIS_TYPE": 0, "CLASSIFICATION_TYPE": "U", "NORAD_CAT_ID": 50404, "ELEMENT_SET_NO": 999, "REV_AT_EPOCH": 21048, "BSTAR": 0.0034989906, "MEAN_MOTION_DOT": 0.00088069, "MEAN_MOTION_DDOT": 0}, "tle": {"line1": "1 50404U 82092ADS 25337.13395746  .00088069  00000+0  34990-2 0  9999", "line2": "2 50404  82.2064 224.8525 0176622 232.1925 126.3205 15.11741121210481"}}, "geometry": {"type": "Point", "coordinates": [-132.3656779153071, 24.20262608607347]}}, {"type": "Feature", "properties": {"norad_id": 50621, "name": "COSMOS 1408 DEB", "group": "cosmos-1408-debris", "lat": -15.600613328718005, "lon": 81.32382657784422, "alt_km": 422.6526848445883, "timestamp": "2025-12-03T20:47:58.494334+00:00", "meta": {"OBJECT_NAME": "COSMOS 1408 DEB", "OBJECT_ID": "1982-092ALR", "EPOCH": "2025-12-03T06:58:32.674080", "MEAN_MOTION": 15.55896354, "ECCENTRICITY": 0.0028874, "INCLINATION": 82.5704, "RA_OF_ASC_NODE": 84.0109, "ARG_OF_PERICENTER": 187.0986, "MEAN_ANOMALY": 172.9864, "EPHEMERIS_TYPE": 0, "CLASSIFICATION_TYPE": "U", "NORAD_CAT_ID": 50621, "ELEMENT_SET_NO": 999, "REV_AT_EPOCH": 22103, "BSTAR": 0.00050325, "MEAN_MOTION_DOT": 0.0003565, "MEAN_MOTION_DDOT": 0}, "tle": {"line1": "1 50621U 82092ALR 25337.29065595  .00035650  00000+0  50325-3 0  9992", "line2": "2 50621  82.5704  84.0109 0028874 187.0986 172.9864 15.55896354221038"}}, "geometry": {"type": "Point", "coordinates": [81.32382657784422, -15.600613328718005]}}]}